{"type": "FeatureCollection", "features": [ {"type": "Feature", "properties": {"norad_id": 34610, "name": "COSMOS 2251 DEB", "group": "cosmos-2251-debris", "lat": -42.36304084411204, "lon": -125.8324265262597, "alt_km": 813.6679169517565, "timestamp": "2025-12-20T03:42:47.788986+00:00", "meta": {"OBJECT_NAME": "COSMOS 2251 DEB", "OBJECT_ID": "1993-036WF", "EPOCH": "2025-12-16T19:43:22.866816", "MEAN_MOTION": 14.07083274, "ECCENTRICITY": 0.01805005, "INCLINATION": 74.0182, "RA_OF_ASC_NODE": 255.1605, "ARG_OF_PERICENTER": 24.866, "MEAN_ANOMALY": 336.104, "EPHEMERIS_TYPE": 0, "CLASSIFICATION_TYPE": "U", "NORAD_CAT_ID": 34610, "ELEMENT_SET_NO": 999, "REV_AT_EPOCH": 85617, "BSTAR": 0.0012903668, "MEAN_MOTION_DOT": 2.479e-05, "MEAN_MOTION_DDOT": 0}, "tle": {"line1": "1 34610U 93036WF  25350.82179244  .00002479  00000+0  12904-2 0  9996", "line2": "2 34610  74.0182 255.1605 0180500  24.8660 336.1040 14.07083274856172"}}, "geometry": {"type": "Point", "coordinates": [-125.8324265262597, -42.36304084411204]}}, {"type": "Feature", "properties": {"norad_id": 34611, "name": "COSMOS 2251 DEB", "group": "cosmos-2251-debris", "lat": -55.636589158328505, "lon": -68.66751537934306, "alt_km": 675.0913656416387, "timestamp": "2025-12-20T03:42:47.788997+00:00", "meta": {"OBJECT_NAME": "COSMOS 2251 DEB", "OBJECT_ID": "1993-036WG", "EPOCH": "2025-12-19T05:29:00.780000", "MEAN_MOTION": 14.6961717, "ECCENTRICITY": 0.0021989, "INCLINATION": 74.0542, "RA_OF_ASC_NODE": 88.4074, "ARG_OF_PERICENTER": 127.6644, "MEAN_ANOMALY": 252.8321, "EPHEMERIS_TYPE": 0, "CLASSIFICATION_TYPE": "U", "NORAD_CAT_ID": 34611, "ELEMENT_SET_NO": 999, "REV_AT_EPOCH": 88486, "BSTAR": 0.001018, "MEAN_MOTION_DOT": 6.048e-05, "MEAN_MOTION_DDOT": 0}, "tle": {"line1": "1 34611U 93036WG  25353.22848125  .00006048  00000+0  10180-2 0  9995", "line2": "2 34611  74.0542  88.4074 0021989 127.6644 252.8321 14.69617170884868"}}, "geometry": {"type": "Point", "coordinates": [-68.66751537934306, -55.636589158328505]}}, {"type": "Feature", "properties": {"norad_id": 34613, "name": "COSMOS 2251 DEB", "group": "cosmos-2251-debris", "lat": -69.03975133581957, "lon": 133.75025272386375, "alt_km": 885.4303132910873, "timestamp": "2025-12-20T03:42:47.789007+00:00", "meta": {"OBJECT_NAME": "COSMOS 2251 DEB", "OBJECT_ID": "1993-036WJ", "EPOCH": "2025-12-19T05:20:33.740736", "MEAN_MOTION": 14.26470363, "ECCENTRICITY": 0.0110345, "INCLINATION": 73.9636, "RA_OF_ASC_NODE": 266.7803, "ARG_OF_PERICENTER": 96.9169, "MEAN_ANOMALY": 54.2263, "EPHEMERIS_TYPE": 0, "CLASSIFICATION_TYPE": "U", "NORAD_CAT_ID": 34613, "ELEMENT_SET_NO": 999, "REV_AT_EPOCH": 86555, "BSTAR": 0.00082714, "MEAN_MOTION_DOT": 2.099e-05, "MEAN_MOTION_DDOT": 0}, "tle": {"line1": "1 34613U 93036WJ  25353.22261274  .00002099  00000+0  82714-3 0  9996", "line2": "2 34613  73.9636 266.7803 0110345  96.9169  54.2263 14.26470363865556"}}, "geometry": {"type": "Point", "coordinates": [133.75025272386375, -69.03975133581957]}}, {"type": "Feature", "properties": {"norad_id": 34614, "name": "COSMOS 2251 DEB", "group": "cosmos-2251-debris", "lat": -61.94422103905127, "lon": -62.31610885637635, "alt_km": 716.0576689550453, "timestamp": "2025-12-20T03:42:47.789017+00:00", "meta": {"OBJECT_NAME": "COSMOS 2251 DEB", "OBJECT_ID": "1993-036WK", "EPOCH": "2025-12-18T23:21:59.727744", "MEAN_MOTION": 14.17670739, "ECCENTRICITY": 0.0197223, "INCLINATION": 73.8822, "RA_OF_ASC_NODE": 332.666, "ARG_OF_PERICENTER": 325.6345, "MEAN_ANOMALY": 63.1604, "EPHEMERIS_TYPE": 0, "CLASSIFICATION_TYPE": "U", "NORAD_CAT_ID": 34614, "ELEMENT_SET_NO": 999, "REV_AT_EPOCH": 84855, "BSTAR": 0.0046815228, "MEAN_MOTION_DOT": 0.00011531, "MEAN_MOTION_DDOT": 0}, "tle": {"line1": "1 34614U 93036WK  25352.97360796  .00011531  00000+0  46815-2 0  9999", "line2": "2 34614  73.8822 332.6660 0197223 325.6345  63.1604 14.17670739848553"}}, "geometry": {"type": "Point", "coordinates": [-62.31610885637635, -61.94422103905127]}}, {"type": "Feature", "properties": {"norad_id": 34615, "name": "COSMOS 2251 DEB", "group": "cosmos-2251-debris", "lat": -62.31552083800688, "lon": 135.38946286200192, "alt_km": 909.2739465002032, "timestamp": "2025-12-20T03:42:47.789028+00:00", "meta": {"OBJECT_NAME": "COSMOS 2251 DEB", "OBJECT_ID": "1993-036WL", "EPOCH": "2025-12-18T06:54:04.948992", "MEAN_MOTION": 13.5220421, "ECCENTRICITY": 0.04007834, "INCLINATION": 74.0049, "RA_OF_ASC_NODE": 285.2433, "ARG_OF_PERICENTER": 191.3049, "MEAN_ANOMALY": 326.0224, "EPHEMERIS_TYPE": 0, "CLASSIFICATION_TYPE": "U", "NORAD_CAT_ID": 34615, "ELEMENT_SET_NO": 999, "REV_AT_EPOCH": 82890, "BSTAR": 6.5275002e-05, "MEAN_MOTION_DOT": 5e-07, "MEAN_MOTION_DDOT": 0}, "tle": {"line1": "1 34615U 93036WL  25352.28755728  .00000050  00000+0  65275-4 0  9994", "line2": "2 34615  74.0049 285.2433 0400783 191.3049 326.0224 13.52204210828907"}}, "geometry": {"type": "Point", "coordinates": [135.38946286200192, -62.31552083800688]}}, {"type": "Feature", "properties": {"norad_id": 34619, "name": "COSMOS 2251 DEB", "group": "cosmos-2251-debris", "lat": -74.03204076702796, "lon": 96.44258318109672, "alt_km": 618.9933420045272, "timestamp": "2025-12-20T03:42:47.789038+00:00", "meta": {"OBJECT_NAME": "COSMOS 2251 DEB", "OBJECT_ID": "1993-036WQ", "EPOCH": "2025-12-19T05:10:01.742016", "MEAN_MOTION": 14.64660075, "ECCENTRICITY": 0.0094753, "INCLINATION": 74.0434, "RA_OF_ASC_NODE": 187.4955, "ARG_OF_PERICENTER": 280.8666, "MEAN_ANOMALY": 78.185, "EPHEMERIS_TYPE": 0, "CLASSIFICATION_TYPE": "U", "NORAD_CAT_ID": 34619, "ELEMENT_SET_NO": 999, "REV_AT_EPOCH": 89393, "BSTAR": 0.00014857, "MEAN_MOTION_DOT": 8.09e-06, "MEAN_MOTION_DDOT": 0}, "tle": {"line1": "1 34619U 93036WQ  25353.21529794  .00000809  00000+0  14857-3 0  9995", "line2": "2 34619  74.0434 187.4955 0094753 280.8666  78.1850 14.64660075893930"}}, "geometry": {"type": "Point", "coordinates": [96.44258318109672, -74.03204076702796]}}, {"type": "Feature", "properties": {"norad_id": 34620, "name": "COSMOS 2251 DEB", "group": "cosmos-2251-debris", "lat": 73.42401132327453, "lon": -48.25189453411531, "alt_km": 767.7350886754684, "timestamp": "2025-12-20T03:42:47.789048+00:00", "meta": {"OBJECT_NAME": "COSMOS 2251 DEB", "OBJECT_ID": "1993-036WR", "EPOCH": "2025-12-17T15:37:43.675680", "MEAN_MOTION": 14.49177124, "ECCENTRICITY": 0.00800634, "INCLINATION": 74.051, "RA_OF_ASC_NODE": 210.3285, "ARG_OF_PERICENTER": 245.6066, "MEAN_ANOMALY": 113.6724, "EPHEMERIS_TYPE": 0, "CLASSIFICATION_TYPE": "U", "NORAD_CAT_ID": 34620, "ELEMENT_SET_NO": 999, "REV_AT_EPOCH": 86898, "BSTAR": 0.001540269, "MEAN_MOTION_DOT": 6.083e-05, "MEAN_MOTION_DDOT": 0}, "tle": {"line1": "1 34620U 93036WR  25351.65119995  .00006083  00000+0  15403-2 0  9998", "line2": "2 34620  74.0510 210.3285 0080063 245.6066 113.6724 14.49177124868984"}}, "geometry": {"type": "Point", "coordinates": [-48.25189453411531, 73.42401132327453]}}, {"type": "Feature", "properties": {"norad_id": 34622, "name": "COSMOS 2251 DEB", "group": "cosmos-2251-debris", "lat": 74.01096552571344, "lon": 26.798705849311755, "alt_km": 792.5404606292068, "timestamp": "2025-12-20T03:42:47.789058+00:00", "meta": {"OBJECT_NAME": "COSMOS 2251 DEB", "OBJECT_ID": "1993-036WT", "EPOCH": "2025-12-17T21:31:57.246240", "MEAN_MOTION": 14.22067123, "ECCENTRICITY": 0.01045787, "INCLINATION": 74.0427, "RA_OF_ASC_NODE": 297.7571, "ARG_OF_PERICENTER": 18.9913, "MEAN_ANOMALY": 37.9607, "EPHEMERIS_TYPE": 0, "CLASSIFICATION_TYPE": "U", "NORAD_CAT_ID": 34622, "ELEMENT_SET_NO": 999, "REV_AT_EPOCH": 86533, "BSTAR": 0.00082135127, "MEAN_MOTION_DOT": 1.896e-05, "MEAN_MOTION_DDOT": 0}, "tle": {"line1": "1 34622U 93036WT  25351.89719035  .00001896  00000+0  82135-3 0  9991", "line2": "2 34622  74.0427 297.7571 0104578  18.9913  37.9607 14.22067123865332"}}, "geometry": {"type": "Point", "coordinates": [26.798705849311755, 74.01096552571344]}}, {"type": "Feature", "properties": {"norad_id": 34626, "name": "COSMOS 2251 DEB", "group": "cosmos-2251-debris", "lat": 6.768969306943702, "lon": 127.53072149613374, "alt_km": 669.3888637463724, "timestamp": "2025-12-20T03:42:47.789068+00:00", "meta": {"OBJECT_NAME": "COSMOS 2251 DEB", "OBJECT_ID": "1993-036WX", "EPOCH": "2025-12-19T06:15:24.784128", "MEAN_MOTION": 14.72271515, "ECCENTRICITY": 0.0026852, "INCLINATION": 74.0482, "RA_OF_ASC_NODE": 311.2138, "ARG_OF_PERICENTER": 37.4998, "MEAN_ANOMALY": 78.6485, "EPHEMERIS_TYPE": 0, "CLASSIFICATION_TYPE": "U", "NORAD_CAT_ID": 34626, "ELEMENT_SET_NO": 999, "REV_AT_EPOCH": 89240, "BSTAR": 0.00072706, "MEAN_MOTION_DOT": 4.589e-05, "MEAN_MOTION_DDOT": 0}, "tle": {"line1": "1 34626U 93036WX  25353.26070352  .00004589  00000+0  72706-3 0  9995", "line2": "2 34626  74.0482 311.2138 0026852  37.4998  78.6485 14.72271515892406"}}, "geometry": {"type": "Point", "coordinates": [127.53072149613374, 6.768969306943702]}}, {"type": "Feature", "properties": {"norad_id": 34634, "name": "COSMOS 2251 DEB", "group": "cosmos-2251-debris", "lat": -69.75113424702, "lon": -108.24392488191319, "alt_km": 734.4982346266943, "timestamp": "2025-12-20T03:42:47.789079+00:00", "meta": {"OBJECT_NAME": "COSMOS 2251 DEB", "OBJECT_ID": "1993-036XF", "EPOCH": "2025-12-19T18:50:09.052800", "MEAN_MOTION": 14.55675956, "ECCENTRICITY": 0.004385, "INCLINATION": 74.0514, "RA_OF_ASC_NODE": 21.6344, "ARG_OF_PERICENTER": 126.9061, "MEAN_ANOMALY": 352.4538, "EPHEMERIS_TYPE": 0, "CLASSIFICATION_TYPE": "U", "NORAD_CAT_ID": 34634, "ELEMENT_SET_NO": 999, "REV_AT_EPOCH": 88884, "BSTAR": 0.0002006, "MEAN_MOTION_DOT": 8.59e-06, "MEAN_MOTION_DDOT": 0}, "tle": {"line1": "1 34634U 93036XF  25353.78482700  .00000859  00000+0  20060-3 0  9997", "line2": "2 34634  74.0514  21.6344 0043850 126.9061 352.4538 14.55675956888847"}}, "geometry": {"type": "Point", "coordinates": [-108.24392488191319, -69.75113424702]}}]}